IRIDIUM 33 DEB          
1 35625U 97051QX  22254.05093204  .00002304  00000+0  10672-2 0  9997
2 35625  86.2058 177.9353 0129682  37.3055 336.5822 14.16059222491430